NORAD_CAT_ID,OBJECT_NAME,OBJECT_TYPE,EPOCH,MEAN_MOTION,ECCENTRICITY,INCLINATION,RA_OF_ASC_NODE,ARG_OF_PERICENTER,MEAN_ANOMALY,BSTAR,MEAN_MOTION_DOT,MEAN_MOTION_DDOT,TLE_LINE0,TLE_LINE1,TLE_LINE2,SEMIMAJOR_AXIS,PERIOD,APOGEE,PERIGEE,DECAYED
52467.0,STARLINK-3873,PAYLOAD,2022-12-29 10:36:52,15.08849634,0.0001286999999999,53.2194,254.6115,79.173,280.9407,-3.3822e-05,-8.26e-06,0.0,0 STARLINK-3873,1 52467U 22049S   22363.44227691 -.00000826  00000-0 -33822-4 0  9992,2 52467  53.2194 254.6115 0001287  79.1730 280.9407 15.08849634 36343,6917.851,95.437,540.606,538.826,0.0
52467.0,STARLINK-3873,PAYLOAD,2022-12-30 02:30:44,15.08841064,0.0001717,53.218,251.6393,69.8528,290.2648,-0.00011498,-2.118e-05,0.0,0 STARLINK-3873,1 52467U 22049S   22364.10468361 -.00002118  00000-0 -11498-3 0  9997,2 52467  53.2180 251.6393 0001717  69.8528 290.2648 15.08841064 36443,6917.877,95.437,540.93,538.554,0.0
52467.0,STARLINK-3873,PAYLOAD,2022-12-30 23:10:44,15.08845703,0.0001493,53.2169,247.7741,71.6908,288.4246,1.1034e-05,-1.12e-06,0.0,0 STARLINK-3873,1 52467U 22049S   22364.96579838 -.00000112  00000-0  11034-4 0  9991,2 52467  53.2169 247.7741 0001493  71.6908 288.4246 15.08845703 36578,6917.863,95.437,540.761,538.695,0.0
52467.0,STARLINK-3873,PAYLOAD,2023-01-01 02:12:18,15.08833259,0.0001258,53.218,242.7187,71.097,289.0158,-8.939299999999999e-05,-1.7100000000000002e-05,0.0,0 STARLINK-3873,1 52467U 22049S   23001.09188644 -.00001710  00000-0 -89393-4 0  9994,2 52467  53.2180 242.7187 0001258  71.0970 289.0158 15.08833259 36743,6917.901,95.438,540.636,538.896,0.0
52467.0,STARLINK-3873,PAYLOAD,2023-01-01 08:33:52,15.08821748,0.0001311,53.218,241.5277,65.7429,294.37,-0.00017331,-3.044e-05,0.0,0 STARLINK-3873,1 52467U 22049S   23001.35685923 -.00003044  00000-0 -17331-3 0  9999,2 52467  53.2180 241.5277 0001311  65.7429 294.3700 15.08821748 36785,6917.936,95.439,540.7080000000002,538.894,0.0
52467.0,STARLINK-3873,PAYLOAD,2023-01-01 22:52:22,15.08812864,0.000154,53.2169,238.8532,78.6445,281.472,-0.00018221,-3.184e-05,0.0,0 STARLINK-3873,1 52467U 22049S   23001.95303394 -.00003184  00000-0 -18221-3 0  9998,2 52467  53.2169 238.8532 0001540  78.6445 281.4720 15.08812864 36711,6917.9630000000025,95.439,540.894,538.763,0.0
52467.0,STARLINK-3873,PAYLOAD,2023-01-02 00:27:45,15.08813001,0.0001460999999999,53.2174,238.5558,77.955,282.1606,-0.00017427,-3.058e-05,0.0,0 STARLINK-3873,1 52467U 22049S   23002.01927477 -.00003058  00000-0 -17427-3 0  9997,2 52467  53.2174 238.5558 0001461  77.9550 282.1606 15.08813001 36886,6917.9630000000025,95.439,540.839,538.817,0.0
52467.0,STARLINK-3873,PAYLOAD,2023-01-02 08:24:41,15.08817413,0.0001460999999999,53.2175,237.0689,74.1971,285.9182,-0.00013755,-2.475e-05,0.0,0 STARLINK-3873,1 52467U 22049S   23002.35047609 -.00002475  00000-0 -13755-3 0  9996,2 52467  53.2175 237.0689 0001461  74.1971 285.9182 15.08817413 36771,6917.949000000001,95.439,540.825,538.804,0.0
52467.0,STARLINK-3873,PAYLOAD,2023-01-02 17:56:59,15.08815381,0.0001308,53.2172,235.2846,73.0487,287.0648,6.6280999999999984e-06,-1.82e-06,0.0,0 STARLINK-3873,1 52467U 22049S   23002.74791651 -.00000182  00000-0  66281-5 0  9998,2 52467  53.2172 235.2846 0001308  73.0487 287.0648 15.08815381 36999,6917.956,95.439,540.726,538.9159999999998,0.0
52467.0,STARLINK-3873,PAYLOAD,2023-01-03 08:15:28,15.08823991,0.0001363,53.217,232.6082,72.5985,287.5156,5.167399999999999e-05,5.34e-06,0.0,0 STARLINK-3873,1 52467U 22049S   23003.34407937  .00000534  00000-0  51674-4 0  9995,2 52467  53.2170 232.6082 0001363  72.5985 287.5156 15.08823991 37084,6917.929,95.439,540.737,538.851,0.0
52467.0,STARLINK-3873,PAYLOAD,2023-01-04 08:06:15,15.08833135,0.0001317,53.2165,228.1473,71.0967,289.0168,0.00022961,3.368e-05,0.0,0 STARLINK-3873,1 52467U 22049S   23004.33768058  .00003368  00000-0  22961-3 0  9993,2 52467  53.2165 228.1473 0001317  71.0967 289.0168 15.08833135 37233,6917.901,95.438,540.677,538.855,0.0
52467.0,STARLINK-3873,PAYLOAD,2023-01-04 20:49:20,15.08844512,0.0001325,53.2163,225.7683,71.0743,289.0393,0.00023346,3.43e-05,0.0,0 STARLINK-3873,1 52467U 22049S   23004.86759379  .00003430  00000-0  23346-3 0  9995,2 52467  53.2163 225.7683 0001325  71.0743 289.0393 15.08844512 37318,6917.8669999999975,95.437,540.648,538.815,0.0
52467.0,STARLINK-3873,PAYLOAD,2023-01-05 07:57:01,15.08855309,0.0001394,53.2165,223.6866,70.566,289.5483,0.00022964,3.37e-05,0.0,0 STARLINK-3873,1 52467U 22049S   23005.33126471  .00003370  00000-0  22964-3 0  9997,2 52467  53.2165 223.6866 0001394  70.5660 289.5483 15.08855309 37386,6917.834,95.437,540.663,538.734,0.0
52467.0,STARLINK-3873,PAYLOAD,2023-01-05 14:18:33,15.08856134,0.0001399,53.2165,222.497,71.3585,288.7559,0.00020098,2.913e-05,0.0,0 STARLINK-3873,1 52467U 22049S   23005.59622301  .00002913  00000-0  20098-3 0  9996,2 52467  53.2165 222.4970 0001399  71.3585 288.7559 15.08856134 37268,6917.831,95.437,540.664,538.7280000000002,0.0
52467.0,STARLINK-3873,PAYLOAD,2023-01-05 17:29:19,15.08855436,0.0001408,53.2165,221.9022,71.6103,288.5042,0.0001610999999999,2.278e-05,0.0,0 STARLINK-3873,1 52467U 22049S   23005.72870357  .00002278  00000-0  16110-3 0  9991,2 52467  53.2165 221.9022 0001408  71.6103 288.5042 15.08855436 37281,6917.833000000001,95.437,540.672,538.724,0.0
52467.0,STARLINK-3873,PAYLOAD,2023-01-06 07:47:49,15.08841001,0.0001354,53.2165,219.2255,72.1651,287.9489,-3.7212e-05,-8.8e-06,0.0,0 STARLINK-3873,1 52467U 22049S   23006.32487420 -.00000880  00000-0 -37212-4 0  9999,2 52467  53.2165 219.2255 0001354  72.1651 287.9489 15.08841001 37532,6917.877,95.437,540.679,538.806,0.0
52467.0,STARLINK-3873,PAYLOAD,2023-01-07 01:17:03,15.08843842,0.0001453,53.2166,215.9553,69.2348,290.88,-0.00013921,-2.503e-05,0.0,0 STARLINK-3873,1 52467U 22049S   23007.05351308 -.00002503  00000-0 -13921-3 0  9999,2 52467  53.2166 215.9553 0001453  69.2348 290.8800 15.08843842 37486,6917.8690000000015,95.437,540.739,538.7280000000002,0.0
52467.0,STARLINK-3873,PAYLOAD,2023-01-07 20:21:40,15.088409900000002,0.0001414,53.2165,212.3867,71.8978,288.2168,-6.9981e-05,-1.402e-05,0.0,0 STARLINK-3873,1 52467U 22049S   23007.84839086 -.00001402  00000-0 -69981-4 0  9995,2 52467  53.2165 212.3867 0001414  71.8978 288.2168 15.08840990 37769,6917.877,95.437,540.721,538.764,0.0
52467.0,STARLINK-3873,PAYLOAD,2023-01-08 05:54:00,15.08831598,0.0001392,53.2165,210.6032,70.8787,289.2356,-0.00013116,-2.374e-05,0.0,0 STARLINK-3873,1 52467U 22049S   23008.24584011 -.00002374  00000-0 -13116-3 0  9992,2 52467  53.2165 210.6032 0001392  70.8787 289.2356 15.08831598 37827,6917.906,95.438,540.734,538.808,0.0
52467.0,STARLINK-3873,PAYLOAD,2023-01-08 13:50:56,15.08825527,0.0001301,53.2169,209.116,70.685,289.4283,3.2982e-05,2.37e-06,0.0,0 STARLINK-3873,1 52467U 22049S   23008.57704193  .00000237  00000-0  32982-4 0  9990,2 52467  53.2169 209.1160 0001301  70.6850 289.4283 15.08825527 37719,6917.925,95.438,540.69,538.89,0.0
52467.0,STARLINK-3873,PAYLOAD,2023-01-08 21:47:52,15.08830742,0.0001243,53.2166,207.6292,67.2208,292.8915,3.6487e-05,2.93e-06,0.0,0 STARLINK-3873,1 52467U 22049S   23008.90824144  .00000293  00000-0  36487-4 0  9992,2 52467  53.2166 207.6292 0001243  67.2208 292.8915 15.08830742 37769,6917.9090000000015,95.438,540.634,538.914,0.0
52467.0,STARLINK-3873,PAYLOAD,2023-01-09 04:09:24,15.08830829,0.0001284,53.2164,206.4396,68.9812,291.1318,3.9385e-05,3.39e-06,0.0,0 STARLINK-3873,1 52467U 22049S   23009.17320271  .00000339  00000-0  39385-4 0  9995,2 52467  53.2164 206.4396 0001284  68.9812 291.1318 15.08830829 37803,6917.908,95.438,540.6619999999998,538.885,0.0
52467.0,STARLINK-3873,PAYLOAD,2023-01-09 13:41:43,15.08835216,0.0001247,53.2161,204.6553,70.5505,289.5622,6.821899999999999e-05,7.98e-06,0.0,0 STARLINK-3873,1 52467U 22049S   23009.57064125  .00000798  00000-0  68219-4 0  9999,2 52467  53.2161 204.6553 0001247  70.5505 289.5622 15.08835216 38021,6917.895,95.438,540.623,538.8969999999998,0.0
52467.0,STARLINK-3873,PAYLOAD,2023-01-09 21:38:42,15.08794125,0.000166,53.2166,203.1687,78.5895,281.5283,-0.00017526,-3.073e-05,0.0,0 STARLINK-3873,1 52467U 22049S   23009.90188021 -.00003073  00000-0 -17526-3 0  9993,2 52467  53.2166 203.1687 0001660  78.5895 281.5283 15.08794125 37912,6918.021,95.44,541.034,538.737,0.0
52467.0,STARLINK-3873,PAYLOAD,2023-01-10 05:35:35,15.08827443,0.0001313,53.2166,201.6818,78.2211,281.8928,9.3228e-05,1.196e-05,0.0,0 STARLINK-3873,1 52467U 22049S   23010.23305554  .00001196  00000-0  93228-4 0  9999,2 52467  53.2166 201.6818 0001313  78.2211 281.8928 15.08827443 38128,6917.919,95.438,540.692,538.875,0.0
52467.0,STARLINK-3873,PAYLOAD,2023-01-10 13:32:31,15.08830082,0.0001363,53.2161,200.1951,79.4577,280.6568,8.1016e-05,1.001e-05,0.0,0 STARLINK-3873,1 52467U 22049S   23010.56425725  .00001001  00000-0  81016-4 0  9995,2 52467  53.2161 200.1951 0001363  79.4577 280.6568 15.08830082 38016,6917.911,95.438,540.719,538.8330000000002,0.0
52467.0,STARLINK-3873,PAYLOAD,2023-01-10 21:29:27,15.08836833,0.0001416,53.2165,198.7079,77.0109,283.1041,0.00010727,1.42e-05,0.0,0 STARLINK-3873,1 52467U 22049S   23010.89545529  .00001420  00000-0  10727-3 0  9991,2 52467  53.2165 198.7079 0001416  77.0109 283.1041 15.08836833 38066,6917.89,95.438,540.735,538.775,0.0
52467.0,STARLINK-3873,PAYLOAD,2023-01-11 05:26:22,15.08840935,0.0001406,53.2167,197.2212,78.3722,281.7428,0.00011601,1.559e-05,0.0,0 STARLINK-3873,1 52467U 22049S   23011.22665303  .00001559  00000-0  11601-3 0  9997,2 52467  53.2167 197.2212 0001406  78.3722 281.7428 15.08840935 38279,6917.8780000000015,95.437,540.715,538.77,0.0
52467.0,STARLINK-3873,PAYLOAD,2023-01-11 18:09:28,15.08783104,0.0001794,53.2161,194.8424,78.85300000000002,281.2664,0.0010427,0.0001631999999999,0.0,0 STARLINK-3873,1 52467U 22049S   23011.75658513  .00016320  00000-0  10427-2 0  9996,2 52467  53.2161 194.8424 0001794  78.8530 281.2664 15.08783104 38353,6918.054,95.441,541.16,538.678,0.0
